{
  "type": "FeatureCollection",
  "features": [
    {
      "type": "Feature",
      "properties": {
        "norad_id": 36668,
        "name": "FENGYUN 1C DEB",
        "group": "fengyun-1c-debris",
        "lat": -75.25698567967332,
        "lon": 139.91775547618093,
        "alt_km": 814.9671105182342,
        "timestamp": "2025-12-10T14:53:37.379246+00:00",
        "meta_object_name": "FENGYUN 1C DEB",
        "meta_object_id": "1999-025DYN",
        "meta_epoch": "2025-12-09T19:00:53.395488",
        "meta_mean_motion": 14.15384059,
        "meta_eccentricity": 0.00512799,
        "meta_inclination": 98.61,
        "meta_ra_of_asc_node": 354.271,
        "meta_arg_of_pericenter": 234.389,
        "meta_mean_anomaly": 125.2501,
        "meta_ephemeris_type": 0,
        "meta_classification_type": "U",
        "meta_norad_cat_id": 36668,
        "meta_element_set_no": 999,
        "meta_rev_at_epoch": 57376,
        "meta_bstar": 0.00098876693,
        "meta_mean_motion_dot": 1.91e-05,
        "meta_mean_motion_ddot": 0,
        "tle_line1": "1 36668U 99025DYN 25343.79228467  .00001910  00000+0  98877-3 0  9998",
        "tle_line2": "2 36668  98.6100 354.2710 0051279 234.3890 125.2501 14.15384059573764"
      },
      "geometry": {
        "type": "Point",
        "coordinates": [
          139.91775547618093,
          -75.25698567967332
        ]
      }
    },
    {
      "type": "Feature",
      "properties": {
        "norad_id": 36678,
        "name": "FENGYUN 1C DEB",
        "group": "fengyun-1c-debris",
        "lat": 12.640468108916128,
        "lon": 148.9315112367473,
        "alt_km": 872.67957275356,
        "timestamp": "2025-12-10T14:53:37.379255+00:00",
        "meta_object_name": "FENGYUN 1C DEB",
        "meta_object_id": "1999-025DYY",
        "meta_epoch": "2025-11-26T04:26:16.761408",
        "meta_mean_motion": 14.37944691,
        "meta_eccentricity": 0.01523469,
        "meta_inclination": 98.2901,
        "meta_ra_of_asc_node": 313.1233,
        "meta_arg_of_pericenter": 42.409,
        "meta_mean_anomaly": 318.8754,
        "meta_ephemeris_type": 0,
        "meta_classification_type": "U",
        "meta_norad_cat_id": 36678,
        "meta_element_set_no": 999,
        "meta_rev_at_epoch": 64751,
        "meta_bstar": 0.00045851479,
        "meta_mean_motion_dot": 1.539e-05,
        "meta_mean_motion_ddot": 0,
        "tle_line1": "1 36678U 99025DYY 25330.18491622  .00001539  00000+0  45851-3 0  9994",
        "tle_line2": "2 36678  98.2901 313.1233 0152346  42.4090 318.8754 14.37944691647514"
      },
      "geometry": {
        "type": "Point",
        "coordinates": [
          148.9315112367473,
          12.640468108916128
        ]
      }
    },
    {
      "type": "Feature",
      "properties": {
        "norad_id": 36679,
        "name": "FENGYUN 1C DEB",
        "group": "fengyun-1c-debris",
        "lat": -54.18820623564051,
        "lon": 148.35476336806198,
        "alt_km": 929.3415620814767,
        "timestamp": "2025-12-10T14:53:37.379264+00:00",
        "meta_object_name": "FENGYUN 1C DEB",
        "meta_object_id": "1999-025DYZ",
        "meta_epoch": "2025-12-02T05:45:43.795008",
        "meta_mean_motion": 14.04609463,
        "meta_eccentricity": 0.0085974,
        "meta_inclination": 98.8351,
        "meta_ra_of_asc_node": 332.6471,
        "meta_arg_of_pericenter": 122.6149,
        "meta_mean_anomaly": 238.3353,
        "meta_ephemeris_type": 0,
        "meta_classification_type": "U",
        "meta_norad_cat_id": 36679,
        "meta_element_set_no": 999,
        "meta_rev_at_epoch": 24401,
        "meta_bstar": 0.00048108,
        "meta_mean_motion_dot": 7.53e-06,
        "meta_mean_motion_ddot": 0,
        "tle_line1": "1 36679U 99025DYZ 25336.24009022  .00000753  00000+0  48108-3 0  9992",
        "tle_line2": "2 36679  98.8351 332.6471 0085974 122.6149 238.3353 14.04609463244016"
      },
      "geometry": {
        "type": "Point",
        "coordinates": [
          148.35476336806198,
          -54.18820623564051
        ]
      }
    },
    {
      "type": "Feature",
      "properties": {
        "norad_id": 36680,
        "name": "FENGYUN 1C DEB",
        "group": "fengyun-1c-debris",
        "lat": 80.41192405821562,
        "lon": -140.25294213170707,
        "alt_km": 950.9657722547872,
        "timestamp": "2025-12-10T14:53:37.379273+00:00",
        "meta_object_name": "FENGYUN 1C DEB",
        "meta_object_id": "1999-025DZA",
        "meta_epoch": "2025-12-08T10:42:54.314208",
        "meta_mean_motion": 14.18615718,
        "meta_eccentricity": 0.01884659,
        "meta_inclination": 98.5487,
        "meta_ra_of_asc_node": 334.7218,
        "meta_arg_of_pericenter": 261.8756,
        "meta_mean_anomaly": 256.1951,
        "meta_ephemeris_type": 0,
        "meta_classification_type": "U",
        "meta_norad_cat_id": 36680,
        "meta_element_set_no": 999,
        "meta_rev_at_epoch": 64236,
        "meta_bstar": 0.0009607999,
        "meta_mean_motion_dot": 2.329e-05,
        "meta_mean_motion_ddot": 0,
        "tle_line1": "1 36680U 99025DZA 25342.44646197  .00002329  00000+0  96080-3 0  9996",
        "tle_line2": "2 36680  98.5487 334.7218 0188465 261.8756 256.1951 14.18615718642363"
      },
      "geometry": {
        "type": "Point",
        "coordinates": [
          -140.25294213170707,
          80.41192405821562
        ]
      }
    },
    {
      "type": "Feature",
      "properties": {
        "norad_id": 36681,
        "name": "FENGYUN 1C DEB",
        "group": "fengyun-1c-debris",
        "lat": -0.9255071573597727,
        "lon": -16.551187602820352,
        "alt_km": 828.7614692530078,
        "timestamp": "2025-12-10T14:53:37.379282+00:00",
        "meta_object_name": "FENGYUN 1C DEB",
        "meta_object_id": "1999-025DZB",
        "meta_epoch": "2025-11-19T06:21:10.816992",
        "meta_mean_motion": 14.10187867,
        "meta_eccentricity": 0.00454,
        "meta_inclination": 98.6964,
        "meta_ra_of_asc_node": 322.6587,
        "meta_arg_of_pericenter": 56.031,
        "meta_mean_anomaly": 304.5163,
        "meta_ephemeris_type": 0,
        "meta_classification_type": "U",
        "meta_norad_cat_id": 36681,
        "meta_element_set_no": 999,
        "meta_rev_at_epoch": 72427,
        "meta_bstar": 0.00080116575,
        "meta_mean_motion_dot": 1.39e-05,
        "meta_mean_motion_ddot": 0,
        "tle_line1": "1 36681U 99025DZB 25323.26470853  .00001390  00000+0  80117-3 0  9991",
        "tle_line2": "2 36681  98.6964 322.6587 0045400  56.0310 304.5163 14.10187867724276"
      },
      "geometry": {
        "type": "Point",
        "coordinates": [
          -16.551187602820352,
          -0.9255071573597727
        ]
      }
    },
    {
      "type": "Feature",
      "properties": {
        "norad_id": 36682,
        "name": "FENGYUN 1C DEB",
        "group": "fengyun-1c-debris",
        "lat": 17.53713089863185,
        "lon": 71.36961814440961,
        "alt_km": 1085.1101134689898,
        "timestamp": "2025-12-10T14:53:37.379291+00:00",
        "meta_object_name": "FENGYUN 1C DEB",
        "meta_object_id": "1999-025DZC",
        "meta_epoch": "2025-12-06T04:55:28.030656",
        "meta_mean_motion": 13.7010637,
        "meta_eccentricity": 0.02343342,
        "meta_inclination": 98.485,
        "meta_ra_of_asc_node": 244.7666,
        "meta_arg_of_pericenter": 294.8114,
        "meta_mean_anomaly": 62.8827,
        "meta_ephemeris_type": 0,
        "meta_classification_type": "U",
        "meta_norad_cat_id": 36682,
        "meta_element_set_no": 999,
        "meta_rev_at_epoch": 61303,
        "meta_bstar": 0.0027042096,
        "meta_mean_motion_dot": 2.849e-05,
        "meta_mean_motion_ddot": 0,
        "tle_line1": "1 36682U 99025DZC 25340.20518554  .00002849  00000+0  27042-2 0  9993",
        "tle_line2": "2 36682  98.4850 244.7666 0234334 294.8114  62.8827 13.70106370613038"
      },
      "geometry": {
        "type": "Point",
        "coordinates": [
          71.36961814440961,
          17.53713089863185
        ]
      }
    },
    {
      "type": "Feature",
      "properties": {
        "norad_id": 36684,
        "name": "FENGYUN 1C DEB",
        "group": "fengyun-1c-debris",
        "lat": 19.92554365326586,
        "lon": -100.21489035441765,
        "alt_km": 568.9772726647434,
        "timestamp": "2025-12-10T14:53:37.379301+00:00",
        "meta_object_name": "FENGYUN 1C DEB",
        "meta_object_id": "1999-025DZE",
        "meta_epoch": "2025-12-09T12:29:55.233888",
        "meta_mean_motion": 14.95831876,
        "meta_eccentricity": 0.002017,
        "meta_inclination": 99.4535,
        "meta_ra_of_asc_node": 74.9969,
        "meta_arg_of_pericenter": 120.9056,
        "meta_mean_anomaly": 239.4146,
        "meta_ephemeris_type": 0,
        "meta_classification_type": "U",
        "meta_norad_cat_id": 36684,
        "meta_element_set_no": 999,
        "meta_rev_at_epoch": 65853,
        "meta_bstar": 0.0064785338,
        "meta_mean_motion_dot": 0.00073307,
        "meta_mean_motion_ddot": 0,
        "tle_line1": "1 36684U 99025DZE 25343.52077817  .00073307  00000+0  64785-2 0  9997",
        "tle_line2": "2 36684  99.4535  74.9969 0020170 120.9056 239.4146 14.95831876658539"
      },
      "geometry": {
        "type": "Point",
        "coordinates": [
          -100.21489035441765,
          19.92554365326586
        ]
      }
    }
  ]
}